NOAA 15                 
1 25338U 98030A   17288.56545393  .00000035  00000-0  33662-4 0  9999
2 25338  98.7811 299.7103 0009968 212.5556 147.5010 14.25820783  9902
METEOSAT-8 (MSG-1)      
1 27509U 02040B   17288.59991097  .00000119  00000-0  00000-0 0  9995
2 27509   5.0480  57.8448 0000681 291.1532 292.8141  1.00263806 55504
KALPANA-1 (METSAT 1)    
1 27525U 02043A   17287.88194458 -.00000098  00000-0  00000-0 0  9990
2 27525   6.5443  54.4433 0014500 225.3901 134.5313  1.00271105 55300
NOAA 18                 
1 28654U 05018A   17288.55891605  .00000030  00000-0  41504-4 0  9995
2 28654  99.1752 313.6724 0015326  94.4129 265.8793 14.12352806639158
METEOSAT-9 (MSG-2)      
1 28912U 05049B   17288.19152170  .00000037  00000-0  00000+0 0  9991
2 28912   2.4334  71.3667 0001512 234.8120 155.9429  1.00270842 43320
HIMAWARI-7 (MTSAT-2)    
1 28937U 06004A   17288.21646750 -.00000268  00000-0  00000-0 0  9993
2 28937   0.0754  81.7363 0003723 127.9919  37.1843  1.00274816 42728
FORMOSAT-3 FM6          
1 29047U 06011A   17288.48552873  .00000060  00000-0  40153-4 0  9991
2 29047  71.9781 301.7222 0052635 303.4799  56.1312 14.28603680601935
FORMOSAT-3 FM1          
1 29048U 06011B   17288.81990070  .00000042  00000-0  33219-4 0  9999
2 29048  71.9677 213.0576 0045995 260.7773  98.8159 14.28539393604478
FORMOSAT-3 FM5          
1 29049U 06011C   17288.87237944  .00000085  00000-0  50110-4 0  9996
2 29049  72.0224  19.0897 0037027 294.7692  64.9594 14.28594187600265
FORMOSAT-3 FM3          
1 29050U 06011D   17288.52170735  .00000203  00000-0  53474-4 0  9992
2 29050  72.0148 265.3537 0052240 297.0859  62.4969 14.58568598614011
FORMOSAT-3 FM4          
1 29051U 06011E   17288.54169846  .00000119  00000-0  62289-4 0  9996
2 29051  72.0044 283.6220 0068086 174.2482 185.9453 14.28620111602802
FORMOSAT-3 FM2          
1 29052U 06011F   17288.60769224  .00000121  00000-0  63842-4 0  9999
2 29052  72.0362 354.7987 0042337 259.0946 100.5425 14.28715343600312
GOES 13                 
1 29155U 06018A   17288.14074575 -.00000277  00000-0  00000+0 0  9992
2 29155   0.1023 106.9350 0001832   1.2925 251.8107  1.00273686 41762
METOP-A                 
1 29499U 06044A   17288.60509090  .00000006  00000-0  22532-4 0  9996
2 29499  98.6647 346.1243 0001419 141.9342  18.4643 14.21511267570061
FENGYUN 2D              
1 29640U 06053A   17288.86436147 -.00000381  00000-0  10000-3 0  9997
2 29640   4.6698  63.7677 0007464 308.4812  87.3910  1.00273880 39817
FENGYUN 3A              
1 32958U 08026A   17288.87431895  .00000020  00000-0  29041-4 0  9996
2 32958  98.4002 311.4755 0008506 294.3064  65.7143 14.19677258486458
FENGYUN 2E              
1 33463U 08066A   17287.92931859 -.00000226  00000-0  00000-0 0  9991
2 33463   2.4046  67.6976 0005548 219.8846 157.3924  1.00269804 32330
NOAA 19                 
1 33591U 09005A   17288.57309665  .00000112  00000-0  86238-4 0  9997
2 33591  99.1084 257.1958 0013115 296.3527  63.6297 14.12220051447383
GOES 14                 
1 35491U 09033A   17288.22312556 -.00000120  00000-0  00000+0 0  9992
2 35491   0.2966 274.6151 0010568 308.8235 136.4963  1.00272553 30406
METEOR-M 1              
1 35865U 09049A   17288.77111807  .00000020  00000-0  27933-4 0  9997
2 35865  98.4173 305.0593 0003071 136.4179 223.7243 14.22122300419248
GOES 15                 
1 36411U 10008A   17288.30904959  .00000062  00000-0  00000+0 0  9996
2 36411   0.2699 274.9364 0004652 279.2594 165.8092  1.00276928 27930
COMS 1                  
1 36744U 10032A   17288.56299463 -.00000371  00000-0  00000-0 0  9992
2 36744   0.0405 103.8047 0000887 157.8920  93.4935  1.00272412 19331
FENGYUN 3B              
1 37214U 10059A   17288.81171866  .00000480  00000-0  26635-3 0  9993
2 37214  98.9100 247.6327 0017464 152.6296 207.5842 14.15864012359614
SUOMI NPP               
1 37849U 11061A   17288.62260976  .00000009  00000-0  25169-4 0  9990
2 37849  98.7099 225.6838 0001368 108.2803 354.7322 14.19549414309188
FENGYUN 2F              
1 38049U 12002A   17288.16467087 -.00000380  00000-0  00000+0 0  9995
2 38049   1.9573  78.2926 0004192 225.4959 251.0332  1.00263758 21132
METEOSAT-10 (MSG-3)     
1 38552U 12035B   17287.93446402 -.00000033  00000-0  00000-0 0  9998
2 38552   0.8379   7.2194 0001401 235.3925 117.3921  1.00265906 19463
METOP-B                 
1 38771U 12049A   17288.64156694  .00000013  00000-0  25853-4 0  9990
2 38771  98.7097 346.8729 0000172 199.9500 310.7215 14.21489902263392
FENGYUN 3C              
1 39260U 13052A   17288.85235424 -.00000376  00000-0 -15768-3 0  9998
2 39260  98.6369 355.6954 0001356  73.5294 286.5995 14.19656980210506
METEOR-M 2              
1 40069U 14037A   17288.80993599 -.00000181  00000-0 -64178-4 0  9994
2 40069  98.6405 340.9452 0004934 215.1167 144.9654 14.20645008169686
HIMAWARI-8              
1 40267U 14060A   17288.54190970 -.00000302  00000-0  00000+0 0  9996
2 40267   0.0146 189.6617 0000892  18.0749 152.2586  1.00271293 11116
FENGYUN 2G              
1 40367U 14090A   17288.59071222 -.00000355  00000-0  00000-0 0  9992
2 40367   0.2191 229.9375 0003550  46.1480  65.4047  1.00263608 10281
METEOSAT-11 (MSG-4)     
1 40732U 15034A   17287.59361505 -.00000056  00000-0  00000+0 0  9999
2 40732   1.6281 233.7677 0001238  21.6059 338.0784  1.00272610  8288
ELEKTRO-L 2             
1 41105U 15074A   17288.88687654 -.00000123  00000-0  00000+0 0  9992
2 41105   0.0590 310.0231 0003085 311.4124 158.4135  1.00272223  6775
HIMAWARI-9              
1 41836U 16064A   17288.54160394 -.00000301  00000-0  00000+0 0  9991
2 41836   0.0267  45.9961 0000941 169.2993 144.7165  1.00270850  3550
GOES 16                 
1 41866U 16071A   17288.18162086 -.00000210  00000-0  00000+0 0  9991
2 41866   0.0291  38.1070 0001189 232.6414  89.2563  1.00271408  3356
FENGYUN 4A              
1 41882U 16077A   17288.90693516 -.00000356  00000-0  00000+0 0  9993
2 41882   0.1990 281.4787 0005764 200.8213 333.4639  1.00268127  3235
CYGFM05                 
1 41884U 16078A   17288.57328130  .00000760  00000-0  42899-4 0  9991
2 41884  34.9576 358.3832 0016741 334.6619  25.3270 15.13724793 46094
CYGFM04                 
1 41885U 16078B   17288.62305452  .00000766  00000-0  42676-4 0  9999
2 41885  34.9508 356.7355 0015098 335.3808  24.6181 15.14185898 46118
CYGFM02                 
1 41886U 16078C   17288.58555511  .00000836  00000-0  46629-4 0  9998
2 41886  34.9600 357.5863 0015844 334.1291  25.8627 15.14045551 46105
CYGFM01                 
1 41887U 16078D   17288.58090018  .00000753  00000-0  42549-4 0  9990
2 41887  34.9543 358.3722 0017146 335.5860  24.4038 15.13706783 46098
CYGFM08                 
1 41888U 16078E   17288.61453337  .00000772  00000-0  43316-4 0  9996
2 41888  34.9514 357.6309 0016244 335.9574  24.0377 15.13913532 46098
CYGFM06                 
1 41889U 16078F   17288.53182238  .00001492  00000-0  81180-4 0  9998
2 41889  34.9593 357.1298 0014610 333.0635  26.9317 15.14316478 46092
CYGFM07                 
1 41890U 16078G   17288.57875704  .00000797  00000-0  44098-4 0  9995
2 41890  34.9532 356.4251 0014325 334.3696  25.6304 15.14383662 46105
CYGFM03                 
1 41891U 16078H   17288.57329711  .00000788  00000-0  43656-4 0  9997
2 41891  34.9564 356.4526 0013815 334.0090  25.9926 15.14387501 46103
